{"type": "FeatureCollection", "features": [ {"type": "Feature", "properties": {"norad_id": 30110, "name": "FENGYUN 1C DEB", "group": "fengyun-1c-debris", "lat": 13.823954496589156, "lon": 96.96197552608041, "alt_km": 879.1928859299605, "timestamp": "2025-12-16T17:51:11.205178+00:00", "meta": {"OBJECT_NAME": "FENGYUN 1C DEB", "OBJECT_ID": "1999-025RP", "EPOCH": "2025-12-15T20:32:29.629536", "MEAN_MOTION": 13.56225887, "ECCENTRICITY": 0.02674975, "INCLINATION": 98.9078, "RA_OF_ASC_NODE": 98.3697, "ARG_OF_PERICENTER": 345.04, "MEAN_ANOMALY": 14.2938, "EPHEMERIS_TYPE": 0, "CLASSIFICATION_TYPE": "U", "NORAD_CAT_ID": 30110, "ELEMENT_SET_NO": 999, "REV_AT_EPOCH": 93557, "BSTAR": 0.00025821296, "MEAN_MOTION_DOT": 1.89e-06, "MEAN_MOTION_DDOT": 0}, "tle": {"line1": "1 30110U 99025RP  25349.85589849  .00000189  00000+0  25821-3 0  9997", "line2": "2 30110  98.9078  98.3697 0267497 345.0400  14.2938 13.56225887935574"}}, "geometry": {"type": "Point", "coordinates": [96.96197552608041, 13.823954496589156]}}, {"type": "Feature", "properties": {"norad_id": 30112, "name": "FENGYUN 1C DEB", "group": "fengyun-1c-debris", "lat": 69.82215343302104, "lon": -61.519799156822096, "alt_km": 678.0722332449004, "timestamp": "2025-12-16T17:51:11.205188+00:00", "meta": {"OBJECT_NAME": "FENGYUN 1C DEB", "OBJECT_ID": "1999-025RR", "EPOCH": "2025-12-15T21:15:39.713184", "MEAN_MOTION": 14.22230749, "ECCENTRICITY": 0.02018214, "INCLINATION": 99.2815, "RA_OF_ASC_NODE": 323.9996, "ARG_OF_PERICENTER": 98.7309, "MEAN_ANOMALY": 263.6783, "EPHEMERIS_TYPE": 0, "CLASSIFICATION_TYPE": "U", "NORAD_CAT_ID": 30112, "ELEMENT_SET_NO": 999, "REV_AT_EPOCH": 97627, "BSTAR": 0.00050761875, "MEAN_MOTION_DOT": 1.337e-05, "MEAN_MOTION_DDOT": 0}, "tle": {"line1": "1 30112U 99025RR  25349.88587631  .00001337  00000+0  50762-3 0  9997", "line2": "2 30112  99.2815 323.9996 0201821  98.7309 263.6783 14.22230749976274"}}, "geometry": {"type": "Point", "coordinates": [-61.519799156822096, 69.82215343302104]}}, {"type": "Feature", "properties": {"norad_id": 30113, "name": "FENGYUN 1C DEB", "group": "fengyun-1c-debris", "lat": -72.62689667905127, "lon": -126.2383143858599, "alt_km": 735.9198921203024, "timestamp": "2025-12-16T17:51:11.205198+00:00", "meta": {"OBJECT_NAME": "FENGYUN 1C DEB", "OBJECT_ID": "1999-025RS", "EPOCH": "2025-12-15T20:39:06.407712", "MEAN_MOTION": 14.45369244, "ECCENTRICITY": 0.00406153, "INCLINATION": 99.0378, "RA_OF_ASC_NODE": 202.2425, "ARG_OF_PERICENTER": 352.9517, "MEAN_ANOMALY": 18.4511, "EPHEMERIS_TYPE": 0, "CLASSIFICATION_TYPE": "U", "NORAD_CAT_ID": 30113, "ELEMENT_SET_NO": 999, "REV_AT_EPOCH": 97954, "BSTAR": 0.0012361854, "MEAN_MOTION_DOT": 4.342e-05, "MEAN_MOTION_DDOT": 0}, "tle": {"line1": "1 30113U 99025RS  25349.86049083  .00004342  00000+0  12362-2 0  9992", "line2": "2 30113  99.0378 202.2425 0040615 352.9517  18.4511 14.45369244979547"}}, "geometry": {"type": "Point", "coordinates": [-126.2383143858599, -72.62689667905127]}}, {"type": "Feature", "properties": {"norad_id": 30114, "name": "FENGYUN 1C DEB", "group": "fengyun-1c-debris", "lat": -77.37723641574736, "lon": 36.42218174820811, "alt_km": 926.6103802344542, "timestamp": "2025-12-16T17:51:11.205209+00:00", "meta": {"OBJECT_NAME": "FENGYUN 1C DEB", "OBJECT_ID": "1999-025RT", "EPOCH": "2025-12-15T22:07:47.031168", "MEAN_MOTION": 14.09654583, "ECCENTRICITY": 0.0082269, "INCLINATION": 98.7468, "RA_OF_ASC_NODE": 352.1935, "ARG_OF_PERICENTER": 110.8982, "MEAN_ANOMALY": 319.9493, "EPHEMERIS_TYPE": 0, "CLASSIFICATION_TYPE": "U", "NORAD_CAT_ID": 30114, "ELEMENT_SET_NO": 999, "REV_AT_EPOCH": 97199, "BSTAR": 0.00013320025, "MEAN_MOTION_DOT": 1.99e-06, "MEAN_MOTION_DDOT": 0}, "tle": {"line1": "1 30114U 99025RT  25349.92207212  .00000199  00000+0  13320-3 0  9992", "line2": "2 30114  98.7468 352.1935 0082269 110.8982 319.9493 14.09654583971995"}}, "geometry": {"type": "Point", "coordinates": [36.42218174820811, -77.37723641574736]}}, {"type": "Feature", "properties": {"norad_id": 30115, "name": "FENGYUN 1C DEB", "group": "fengyun-1c-debris", "lat": 43.242186798859166, "lon": -153.86938487638858, "alt_km": 819.3202069347399, "timestamp": "2025-12-16T17:51:11.205219+00:00", "meta": {"OBJECT_NAME": "FENGYUN 1C DEB", "OBJECT_ID": "1999-025RU", "EPOCH": "2025-12-15T13:10:57.448992", "MEAN_MOTION": 14.19789284, "ECCENTRICITY": 0.00676672, "INCLINATION": 98.623, "RA_OF_ASC_NODE": 16.7625, "ARG_OF_PERICENTER": 52.7537, "MEAN_ANOMALY": 100.0635, "EPHEMERIS_TYPE": 0, "CLASSIFICATION_TYPE": "U", "NORAD_CAT_ID": 30115, "ELEMENT_SET_NO": 999, "REV_AT_EPOCH": 97368, "BSTAR": 0.00080948575, "MEAN_MOTION_DOT": 1.712e-05, "MEAN_MOTION_DDOT": 0}, "tle": {"line1": "1 30115U 99025RU  25349.54927603  .00001712  00000+0  80949-3 0  9997", "line2": "2 30115  98.6230  16.7625 0067667  52.7537 100.0635 14.19789284973689"}}, "geometry": {"type": "Point", "coordinates": [-153.86938487638858, 43.242186798859166]}}, {"type": "Feature", "properties": {"norad_id": 30116, "name": "FENGYUN 1C DEB", "group": "fengyun-1c-debris", "lat": -16.90710986158555, "lon": -120.798065436472, "alt_km": 808.8981450015044, "timestamp": "2025-12-16T17:51:11.205230+00:00", "meta": {"OBJECT_NAME": "FENGYUN 1C DEB", "OBJECT_ID": "1999-025RV", "EPOCH": "2025-12-15T16:26:28.080672", "MEAN_MOTION": 14.29304349, "ECCENTRICITY": 0.00205577, "INCLINATION": 99.3981, "RA_OF_ASC_NODE": 60.9467, "ARG_OF_PERICENTER": 333.0471, "MEAN_ANOMALY": 178.9572, "EPHEMERIS_TYPE": 0, "CLASSIFICATION_TYPE": "U", "NORAD_CAT_ID": 30116, "ELEMENT_SET_NO": 999, "REV_AT_EPOCH": 97551, "BSTAR": 0.0010249472, "MEAN_MOTION_DOT": 2.564e-05, "MEAN_MOTION_DDOT": 0}, "tle": {"line1": "1 30116U 99025RV  25349.68504723  .00002564  00000+0  10249-2 0  9998", "line2": "2 30116  99.3981  60.9467 0020557 333.0471 178.9572 14.29304349975519"}}, "geometry": {"type": "Point", "coordinates": [-120.798065436472, -16.90710986158555]}}, {"type": "Feature", "properties": {"norad_id": 30117, "name": "FENGYUN 1C DEB", "group": "fengyun-1c-debris", "lat": 22.306969461458536, "lon": 162.7367548045401, "alt_km": 777.7123101898569, "timestamp": "2025-12-16T17:51:11.205240+00:00", "meta": {"OBJECT_NAME": "FENGYUN 1C DEB", "OBJECT_ID": "1999-025RW", "EPOCH": "2025-12-15T22:28:02.947008", "MEAN_MOTION": 14.07163829, "ECCENTRICITY": 0.01637602, "INCLINATION": 98.804, "RA_OF_ASC_NODE": 338.3043, "ARG_OF_PERICENTER": 200.1355, "MEAN_ANOMALY": 188.8402, "EPHEMERIS_TYPE": 0, "CLASSIFICATION_TYPE": "U", "NORAD_CAT_ID": 30117, "ELEMENT_SET_NO": 999, "REV_AT_EPOCH": 97034, "BSTAR": 7.3065753e-05, "MEAN_MOTION_DOT": 9.5e-07, "MEAN_MOTION_DDOT": 0}, "tle": {"line1": "1 30117U 99025RW  25349.93614522  .00000095  00000+0  73066-4 0  9991", "line2": "2 30117  98.8040 338.3043 0163760 200.1355 188.8402 14.07163829970341"}}, "geometry": {"type": "Point", "coordinates": [162.7367548045401, 22.306969461458536]}}, {"type": "Feature", "properties": {"norad_id": 30118, "name": "FENGYUN 1C DEB", "group": "fengyun-1c-debris", "lat": -41.42004166915775, "lon": 166.50664082106906, "alt_km": 944.0933720086805, "timestamp": "2025-12-16T17:51:11.205250+00:00", "meta": {"OBJECT_NAME": "FENGYUN 1C DEB", "OBJECT_ID": "1999-025RX", "EPOCH": "2025-12-15T22:17:53.255904", "MEAN_MOTION": 14.05124223, "ECCENTRICITY": 0.00853245, "INCLINATION": 98.8033, "RA_OF_ASC_NODE": 353.5737, "ARG_OF_PERICENTER": 50.9604, "MEAN_ANOMALY": 11.5643, "EPHEMERIS_TYPE": 0, "CLASSIFICATION_TYPE": "U", "NORAD_CAT_ID": 30118, "ELEMENT_SET_NO": 999, "REV_AT_EPOCH": 96976, "BSTAR": 2.1335761e-05, "MEAN_MOTION_DOT": -7e-08, "MEAN_MOTION_DDOT": 0}, "tle": {"line1": "1 30118U 99025RX  25349.92908861 -.00000007  00000+0  21336-4 0  9990", "line2": "2 30118  98.8033 353.5737 0085324  50.9604  11.5643 14.05124223969766"}}, "geometry": {"type": "Point", "coordinates": [166.50664082106906, -41.42004166915775]}}, {"type": "Feature", "properties": {"norad_id": 30119, "name": "FENGYUN 1C DEB", "group": "fengyun-1c-debris", "lat": 46.28626407505929, "lon": -24.056998899857568, "alt_km": 868.0907462007281, "timestamp": "2025-12-16T17:51:11.205261+00:00", "meta": {"OBJECT_NAME": "FENGYUN 1C DEB", "OBJECT_ID": "1999-025RY", "EPOCH": "2025-12-15T23:19:08.597856", "MEAN_MOTION": 14.22264431, "ECCENTRICITY": 0.01309483, "INCLINATION": 97.92, "RA_OF_ASC_NODE": 343.6208, "ARG_OF_PERICENTER": 283.3109, "MEAN_ANOMALY": 130.6359, "EPHEMERIS_TYPE": 0, "CLASSIFICATION_TYPE": "U", "NORAD_CAT_ID": 30119, "ELEMENT_SET_NO": 999, "REV_AT_EPOCH": 97226, "BSTAR": 0.0011517662, "MEAN_MOTION_DOT": 2.754e-05, "MEAN_MOTION_DDOT": 0}, "tle": {"line1": "1 30119U 99025RY  25349.97162729  .00002754  00000+0  11518-2 0  9990", "line2": "2 30119  97.9200 343.6208 0130948 283.3109 130.6359 14.22264431972262"}}, "geometry": {"type": "Point", "coordinates": [-24.056998899857568, 46.28626407505929]}}, {"type": "Feature", "properties": {"norad_id": 30120, "name": "FENGYUN 1C DEB", "group": "fengyun-1c-debris", "lat": 78.93675073603718, "lon": 19.846722450229116, "alt_km": 812.5544338282771, "timestamp": "2025-12-16T17:51:11.205271+00:00", "meta": {"OBJECT_NAME": "FENGYUN 1C DEB", "OBJECT_ID": "1999-025RZ", "EPOCH": "2025-12-15T16:56:48.501888", "MEAN_MOTION": 14.27634107, "ECCENTRICITY": 0.00637262, "INCLINATION": 98.8519, "RA_OF_ASC_NODE": 71.6411, "ARG_OF_PERICENTER": 203.039, "MEAN_ANOMALY": 310.4092, "EPHEMERIS_TYPE": 0, "CLASSIFICATION_TYPE": "U", "NORAD_CAT_ID": 30120, "ELEMENT_SET_NO": 999, "REV_AT_EPOCH": 97413, "BSTAR": 0.0013308421, "MEAN_MOTION_DOT": 3.305e-05, "MEAN_MOTION_DDOT": 0}, "tle": {"line1": "1 30120U 99025RZ  25349.70611692  .00003305  00000+0  13308-2 0  9993", "line2": "2 30120  98.8519  71.6411 0063726 203.0390 310.4092 14.27634107974137"}}, "geometry": {"type": "Point", "coordinates": [19.846722450229116, 78.93675073603718]}}]}